start=new Date('2023-04-14T00:00:00.000Z').valueOf();
sats=[{"TLE_LINE1":"1 55359U 23013AE  23103.83334491 -.00896993  00000-0 -56497-1 0  9998","MEAN_MOTION":"15.11292015","RCS_SIZE":"LARGE","PERIAPSIS":"531.398","EPHEMERIS_TYPE":"0","ARG_OF_PERICENTER":"272.7971","MEAN_MOTION_DDOT":"0.0000000000000","OBJECT_TYPE":"PAYLOAD","FILE":"3886629","PERIOD":"95.283","MEAN_MOTION_DOT":"-0.00896993","INCLINATION":"43.0015","BSTAR":"-0.05649700000000","MEAN_ELEMENT_THEORY":"SGP4","CENTER_NAME":"EARTH","COUNTRY_CODE":"US","ELEMENT_SET_NO":"999","RA_OF_ASC_NODE":"304.5537","NORAD_CAT_ID":"55359","EPOCH":"2023-04-13T20:00:01.000224","CLASSIFICATION_TYPE":"U","LAUNCH_DATE":"2023-01-26","SITE":"AFETR","OBJECT_NAME":"STARLINK-5641","TLE_LINE2":"2 55359  43.0015 304.5537 0001248 272.7971 355.5971 15.11292015 12554","OBJECT_ID":"2023-013AE","DECAY_DATE":null,"REV_AT_EPOCH":"1255","GP_ID":"230018755","SEMIMAJOR_AXIS":"6910.396","MEAN_ANOMALY":"355.5971","TIME_SYSTEM":"UTC","APOAPSIS":"533.123","ECCENTRICITY":"0.00012480","REF_FRAME":"TEME"},{"BSTAR":"0.00011741000000","MEAN_ELEMENT_THEORY":"SGP4","CENTER_NAME":"EARTH","COUNTRY_CODE":"US","ELEMENT_SET_NO":"999","RA_OF_ASC_NODE":"321.5658","OBJECT_TYPE":"PAYLOAD","FILE":"3886564","PERIOD":"95.838","MEAN_MOTION_DOT":"0.00001383","INCLINATION":"43.0015","ARG_OF_PERICENTER":"272.4195","EPHEMERIS_TYPE":"0","MEAN_MOTION_DDOT":"0.0000000000000","TLE_LINE1":"1 55360U 23013AF  23103.02325829  .00001383  00000-0  11741-3 0  9990","MEAN_MOTION":"15.02538375","RCS_SIZE":"LARGE","PERIAPSIS":"557.822","APOAPSIS":"560.326","ECCENTRICITY":"0.00018050","REF_FRAME":"TEME","OBJECT_ID":"2023-013AF","TLE_LINE2":"2 55360  43.0015 321.5658 0001805 272.4195  87.6441 15.02538375 11863","DECAY_DATE":null,"REV_AT_EPOCH":"1186","GP_ID":"230015840","SEMIMAJOR_AXIS":"6937.209","MEAN_ANOMALY":"87.6441","TIME_SYSTEM":"UTC","OBJECT_NAME":"STARLINK-5664","NORAD_CAT_ID":"55360","EPOCH":"2023-04-13T00:33:29.516256","CLASSIFICATION_TYPE":"U","LAUNCH_DATE":"2023-01-26","SITE":"AFETR"},{"APOAPSIS":"418.288","REF_FRAME":"TEME","ECCENTRICITY":"0.00013610","DECAY_DATE":null,"OBJECT_ID":"2023-013AG","TLE_LINE2":"2 55361  42.9991 297.0511 0001361 282.1677 184.5279 15.49782852 12645","MEAN_ANOMALY":"184.5279","TIME_SYSTEM":"UTC","REV_AT_EPOCH":"1264","GP_ID":"230018776","SEMIMAJOR_AXIS":"6795.498","OBJECT_NAME":"STARLINK-5665","EPOCH":"2023-04-13T20:00:01.000224","NORAD_CAT_ID":"55361","LAUNCH_DATE":"2023-01-26","SITE":"AFETR","CLASSIFICATION_TYPE":"U","BSTAR":"-0.01701100000000","MEAN_ELEMENT_THEORY":"SGP4","ELEMENT_SET_NO":"999","RA_OF_ASC_NODE":"297.0511","CENTER_NAME":"EARTH","COUNTRY_CODE":"US","OBJECT_TYPE":"PAYLOAD","FILE":"3886630","MEAN_MOTION_DOT":"-0.00882281","INCLINATION":"42.9991","PERIOD":"92.916","MEAN_MOTION_DDOT":"0.0000000000000","EPHEMERIS_TYPE":"0","ARG_OF_PERICENTER":"282.1677","TLE_LINE1":"1 55361U 23013AG  23103.83334491 -.00882281  00000-0 -17011-1 0  9995","RCS_SIZE":"LARGE","MEAN_MOTION":"15.49782852","PERIAPSIS":"416.438"},{"BSTAR":"-0.01686400000000","MEAN_ELEMENT_THEORY":"SGP4","ELEMENT_SET_NO":"999","RA_OF_ASC_NODE":"297.0549","CENTER_NAME":"EARTH","COUNTRY_CODE":"US","OBJECT_TYPE":"PAYLOAD","FILE":"3886630","MEAN_MOTION_DOT":"-0.00874764","INCLINATION":"42.9991","PERIOD":"92.917","MEAN_MOTION_DDOT":"0.0000000000000","ARG_OF_PERICENTER":"274.4114","EPHEMERIS_TYPE":"0","TLE_LINE1":"1 55362U 23013AH  23103.83334491 -.00874764  00000-0 -16864-1 0  9998","RCS_SIZE":"LARGE","MEAN_MOTION":"15.49762939","PERIAPSIS":"416.495","APOAPSIS":"418.347","REF_FRAME":"TEME","ECCENTRICITY":"0.00013630","DECAY_DATE":null,"TLE_LINE2":"2 55362  42.9991 297.0549 0001363 274.4114 191.0345 15.49762939 12640","OBJECT_ID":"2023-013AH","MEAN_ANOMALY":"191.0345","TIME_SYSTEM":"UTC","GP_ID":"230018775","REV_AT_EPOCH":"1264","SEMIMAJOR_AXIS":"6795.556","OBJECT_NAME":"STARLINK-5574","EPOCH":"2023-04-13T20:00:01.000224","NORAD_CAT_ID":"55362","LAUNCH_DATE":"2023-01-26","SITE":"AFETR","CLASSIFICATION_TYPE":"U"},{"ARG_OF_PERICENTER":"279.6164","EPHEMERIS_TYPE":"0","MEAN_MOTION_DDOT":"0.0000000000000","MEAN_MOTION":"15.02538169","TLE_LINE1":"1 55363U 23013AJ  23103.60058940  .00002579  00000-0  20590-3 0  9994","RCS_SIZE":"LARGE","PERIAPSIS":"557.948","CENTER_NAME":"EARTH","COUNTRY_CODE":"US","ELEMENT_SET_NO":"999","RA_OF_ASC_NODE":"319.0209","BSTAR":"0.00020590000000","MEAN_ELEMENT_THEORY":"SGP4","PERIOD":"95.838","MEAN_MOTION_DOT":"0.00002579","INCLINATION":"43.0015","OBJECT_TYPE":"PAYLOAD","FILE":"3886677","OBJECT_NAME":"STARLINK-5648","CLASSIFICATION_TYPE":"U","SITE":"AFETR","LAUNCH_DATE":"2023-01-26","NORAD_CAT_ID":"55363","EPOCH":"2023-04-13T14:24:50.924160","ECCENTRICITY":"0.00016250","REF_FRAME":"TEME","APOAPSIS":"560.202","REV_AT_EPOCH":"1237","GP_ID":"230019831","SEMIMAJOR_AXIS":"6937.210","MEAN_ANOMALY":"80.4495","TIME_SYSTEM":"UTC","TLE_LINE2":"2 55363  43.0015 319.0209 0001625 279.6164  80.4495 15.02538169 12373","OBJECT_ID":"2023-013AJ","DECAY_DATE":null},{"REF_FRAME":"TEME","ECCENTRICITY":"0.00012220","APOAPSIS":"531.065","TIME_SYSTEM":"UTC","MEAN_ANOMALY":"355.0189","SEMIMAJOR_AXIS":"6908.356","REV_AT_EPOCH":"130","GP_ID":"230016341","DECAY_DATE":null,"OBJECT_ID":"2023-013AK","TLE_LINE2":"2 55364  43.0013 306.3798 0001222 260.4475 355.0189 15.11961451  1306","OBJECT_NAME":"STARLINK-5627","LAUNCH_DATE":"2023-01-26","SITE":"AFETR","CLASSIFICATION_TYPE":"U","EPOCH":"2023-04-13T12:00:00.999648","NORAD_CAT_ID":"55364","RA_OF_ASC_NODE":"306.3798","ELEMENT_SET_NO":"999","COUNTRY_CODE":"US","CENTER_NAME":"EARTH","MEAN_ELEMENT_THEORY":"SGP4","BSTAR":"-0.05435000000000","INCLINATION":"43.0013","MEAN_MOTION_DOT":"-0.00880474","PERIOD":"95.241","FILE":"3886564","OBJECT_TYPE":"PAYLOAD","MEAN_MOTION_DDOT":"0.0000000000000","ARG_OF_PERICENTER":"260.4475","EPHEMERIS_TYPE":"0","PERIAPSIS":"529.377","MEAN_MOTION":"15.11961451","TLE_LINE1":"1 55364U 23013AK  23103.50001157 -.00880474  00000-0 -54350-1 0  9991","RCS_SIZE":"LARGE"},{"OBJECT_NAME":"STARLINK-5639","EPOCH":"2023-04-13T17:28:18.478560","NORAD_CAT_ID":"55365","SITE":"AFETR","LAUNCH_DATE":"2023-01-26","CLASSIFICATION_TYPE":"U","APOAPSIS":"560.057","REF_FRAME":"TEME","ECCENTRICITY":"0.00013970","DECAY_DATE":null,"OBJECT_ID":"2023-013AL","TLE_LINE2":"2 55365  43.0025 318.2543 0001397 265.2623  94.8060 15.02534080 12392","MEAN_ANOMALY":"94.8060","TIME_SYSTEM":"UTC","GP_ID":"230018790","REV_AT_EPOCH":"1239","SEMIMAJOR_AXIS":"6937.222","MEAN_MOTION_DDOT":"0.0000000000000","ARG_OF_PERICENTER":"265.2623","EPHEMERIS_TYPE":"0","TLE_LINE1":"1 55365U 23013AL  23103.72799165  .00001299  00000-0  11125-3 0  9992","MEAN_MOTION":"15.02534080","RCS_SIZE":"LARGE","PERIAPSIS":"558.118","BSTAR":"0.00011125000000","MEAN_ELEMENT_THEORY":"SGP4","ELEMENT_SET_NO":"999","RA_OF_ASC_NODE":"318.2543","CENTER_NAME":"EARTH","COUNTRY_CODE":"US","OBJECT_TYPE":"PAYLOAD","FILE":"3886631","MEAN_MOTION_DOT":"0.00001299","INCLINATION":"43.0025","PERIOD":"95.838"},{"OBJECT_NAME":"STARLINK-5654","SITE":"AFETR","LAUNCH_DATE":"2023-01-26","CLASSIFICATION_TYPE":"U","EPOCH":"2023-04-13T20:00:01.000224","NORAD_CAT_ID":"55366","REF_FRAME":"TEME","ECCENTRICITY":"0.00013980","APOAPSIS":"418.430","MEAN_ANOMALY":"188.8447","TIME_SYSTEM":"UTC","REV_AT_EPOCH":"1264","GP_ID":"230018937","SEMIMAJOR_AXIS":"6795.615","DECAY_DATE":null,"OBJECT_ID":"2023-013AM","TLE_LINE2":"2 55366  42.9992 297.0574 0001398 275.3509 188.8447 15.49742862 12649","MEAN_MOTION_DDOT":"0.0000000000000","ARG_OF_PERICENTER":"275.3509","EPHEMERIS_TYPE":"0","TLE_LINE1":"1 55366U 23013AM  23103.83334491 -.00866915  00000-0 -16710-1 0  9991","MEAN_MOTION":"15.49742862","RCS_SIZE":"LARGE","PERIAPSIS":"416.530","ELEMENT_SET_NO":"999","RA_OF_ASC_NODE":"297.0574","CENTER_NAME":"EARTH","COUNTRY_CODE":"US","BSTAR":"-0.01671000000000","MEAN_ELEMENT_THEORY":"SGP4","MEAN_MOTION_DOT":"-0.00866915","INCLINATION":"42.9992","PERIOD":"92.919","OBJECT_TYPE":"PAYLOAD","FILE":"3886631"},{"SITE":"AFETR","LAUNCH_DATE":"2023-01-26","CLASSIFICATION_TYPE":"U","EPOCH":"2023-04-13T20:00:01.000224","NORAD_CAT_ID":"55367","OBJECT_NAME":"STARLINK-5635","MEAN_ANOMALY":"198.1111","TIME_SYSTEM":"UTC","GP_ID":"230018931","REV_AT_EPOCH":"1264","SEMIMAJOR_AXIS":"6795.533","DECAY_DATE":null,"TLE_LINE2":"2 55367  42.9989 297.0447 0001337 271.1558 198.1111 15.49770663 12648","OBJECT_ID":"2023-013AN","REF_FRAME":"TEME","ECCENTRICITY":"0.00013370","APOAPSIS":"418.307","TLE_LINE1":"1 55367U 23013AN  23103.83334491 -.00878099  00000-0 -16930-1 0  9992","RCS_SIZE":"LARGE","MEAN_MOTION":"15.49770663","PERIAPSIS":"416.490","MEAN_MOTION_DDOT":"0.0000000000000","EPHEMERIS_TYPE":"0","ARG_OF_PERICENTER":"271.1558","MEAN_MOTION_DOT":"-0.00878099","INCLINATION":"42.9989","PERIOD":"92.917","OBJECT_TYPE":"PAYLOAD","FILE":"3886631","ELEMENT_SET_NO":"999","RA_OF_ASC_NODE":"297.0447","CENTER_NAME":"EARTH","COUNTRY_CODE":"US","BSTAR":"-0.01693000000000","MEAN_ELEMENT_THEORY":"SGP4"},{"MEAN_ANOMALY":"189.8992","TIME_SYSTEM":"UTC","GP_ID":"230018926","REV_AT_EPOCH":"1264","SEMIMAJOR_AXIS":"6795.509","DECAY_DATE":null,"OBJECT_ID":"2023-013AP","TLE_LINE2":"2 55368  42.9991 297.0481 0001389 278.0714 189.8992 15.49778841 12647","REF_FRAME":"TEME","ECCENTRICITY":"0.00013890","APOAPSIS":"418.318","SITE":"AFETR","LAUNCH_DATE":"2023-01-26","CLASSIFICATION_TYPE":"U","EPOCH":"2023-04-13T20:00:01.000224","NORAD_CAT_ID":"55368","OBJECT_NAME":"STARLINK-5625","MEAN_MOTION_DOT":"-0.00869066","INCLINATION":"42.9991","PERIOD":"92.916","OBJECT_TYPE":"PAYLOAD","FILE":"3886631","ELEMENT_SET_NO":"999","RA_OF_ASC_NODE":"297.0481","CENTER_NAME":"EARTH","COUNTRY_CODE":"US","BSTAR":"-0.01673400000000","MEAN_ELEMENT_THEORY":"SGP4","RCS_SIZE":"LARGE","TLE_LINE1":"1 55368U 23013AP  23103.83334491 -.00869066  00000-0 -16734-1 0  9999","MEAN_MOTION":"15.49778841","PERIAPSIS":"416.431","MEAN_MOTION_DDOT":"0.0000000000000","EPHEMERIS_TYPE":"0","ARG_OF_PERICENTER":"278.0714"}];
